#cP2023  4 25  0  0  0.00000000      96 ORBIT IGS20 HLM  IGS
## 2259 172800.00000000   900.00000000 60059 0.0000000000000
+   32   G01G02G03G04G05G06G07G08G09G10G11G12G13G14G15G16G17
+        G18G19G20G21G22G23G24G25G26G27G28G29G30G31G32  0  0
+          0  0  0  0  0  0  0  0  0  0  0  0  0  0  0  0  0
+          0  0  0  0  0  0  0  0  0  0  0  0  0  0  0  0  0
+          0  0  0  0  0  0  0  0  0  0  0  0  0  0  0  0  0
++         2  2  2  2  2  2  2  2  2  2  3  2  2  2  2  2  2
++         3  2  2  2  3  2  2  2  2  2  2  2  2  2  2  0  0
++         0  0  0  0  0  0  0  0  0  0  0  0  0  0  0  0  0
++         0  0  0  0  0  0  0  0  0  0  0  0  0  0  0  0  0
++         0  0  0  0  0  0  0  0  0  0  0  0  0  0  0  0  0
%c G  cc GPS ccc cccc cccc cccc cccc ccccc ccccc ccccc ccccc
%c cc cc ccc ccc cccc cccc cccc cccc ccccc ccccc ccccc ccccc
%f  1.2500000  1.025000000  0.00000000000  0.000000000000000
%f  0.0000000  0.000000000  0.00000000000  0.000000000000000
%i    0    0    0    0      0      0      0      0         0
%i    0    0    0    0      0      0      0      0         0
/* RAPID ORBIT COMBINATION FROM WEIGHTED AVERAGE OF:        
/* cod emr esa gfz grg jpl ngs sio usn whu                  
/* REFERENCED TO IGS TIME (IGST) AND TO WEIGHTED MEAN POLE: 
/* PCV:IGS20_2233 OL/AL:FES2014b NONE     Y  ORB:CMB CLK:CMB
*  2023  4 25  6  0  0.00000000
PG01 -14912.199146   -286.321043  21685.034649    190.404712  5  5  6  98       
PG02   2424.696136 -21598.786428 -14984.211074   -602.675781  5  9  4  89       
PG03 -20885.904626   9840.574410  12893.288765   -320.812859  5  7  5  99       
PG04 -24525.708389    987.752705 -10276.973686     25.258395  8  5  4 121       
PG05  14866.258092   5446.128800 -21513.932313   -124.724102  7  8  5 114       
PG06   4696.680760  25712.154943   4470.088801    587.703782  6  7  5  95       
PG07  -9342.903036  15428.902108 -18878.759581    193.533653  4  5  4 124       
PG08 -25921.146289  -6464.809162  -1889.281969   -119.391491  3  6  3 102       
PG09 -17380.234265   9365.253333 -17857.173400   -172.789853  1  7  7  94       
PG10   7941.072980 -21656.780737  13064.269006    -34.277553  4  5  3  85       
PG11  12450.903427  21356.589464  -9753.134505   -174.135337  6  9  7 118       
PG12  21178.344336  -6294.775269  14394.924173   -368.129688  3  6  4  90       
PG13  21734.994006  13625.007655  -7456.696175    510.741080  5  7  7  75       
PG14 -10998.910169  21770.352239  10343.739988     35.785369  3 10  2 103       
PG15  26417.500130   3616.298784  -1948.789814     33.712906     6  7  93       
PG16 -12162.928674  -9475.047741 -21960.032965   -506.269133  7  8  5 102       
PG17  -2859.364837  14888.057500  22234.903835    712.147546  4  7  6 101       
PG18   6966.540099 -18639.838038 -17516.780314   -239.042976  7  8  5  87       
PG19   7701.425174  16452.211006  19251.019662    308.251768  2  7  6 120       
PG20   8459.763455  14286.252037 -20735.391435    437.122851  5  8  6 103       
PG21 -17688.755985  -9044.058134  18580.023259    154.099932  2  7  7  90       
PG22 -10830.923989 -16658.992879  18151.497226    470.220142  6  6  5  38       
PG23  16473.637397 -20664.654786   1653.521610     19.261647  4  8  5  76       
PG24  17291.932357   4187.482154  19484.496686   -164.805378  6  5  4 108       
PG25  19974.334543 -16243.127114   5614.707537    438.155129  4  7  1  84       
PG26  -2346.351918 -18891.872368 -18501.841661    241.480627  8  9  1  83       
PG27 -20149.422680 -13001.410886 -12109.789836     51.363628  6  7  6  90       
PG28  -4335.319328 -25453.623959   6214.392233     70.145459  6 10  4  98       
PG29  20670.315406  -4988.861995 -16025.599242   -596.932215  5  6  6  97       
PG30  -1410.868243  23858.741772 -11187.717153   -520.656770  5  7  6 115       
PG31  -9123.483181 -24551.330372  -2808.798383   -214.735002  4  8  5  97       
PG32  -1150.054293 -15726.234006  21574.595935   -460.404897  6  3  5  82       
*  2023  4 25  6 15  0.00000000
PG01 -15665.814422  -2671.695405  21021.682633    190.401864  5  5  6 100       
PG02   3335.504349 -19926.679895 -16911.079745   -602.672490  6  8  4  95       
PG03 -19951.682314   8501.837979  15121.908565   -320.804311  5  7  5  99       
PG04 -25477.159466    545.138797  -7678.785348     25.266815  8  5  4 122       
PG05  13376.436585   7384.763253 -21902.750446   -124.725480  7  8  6 112       
PG06   4318.997455  25137.767510   7282.922000    587.704413  6  7  6  81       
PG07 -10241.329542  13272.155461 -20035.055769    193.525562  5  6  4 112       
PG08 -25524.888665  -6630.488897  -4685.690124   -119.393064  4  6  3 102       
PG09 -19256.282758   8883.431325 -16087.893157   -172.782580  2  7  7 111       
PG10   8956.100585 -22548.036486  10612.720082    -34.278399  4  5  3  78       
PG11  12509.172268  22344.499475  -7113.082295   -174.147113  6 11  7 116       
PG12  20031.786593  -4881.372537  16412.535396   -368.133940  3  6  5  92       
PG13  20749.159953  13496.274755 -10079.139034    510.746098  6  7  7  91       
PG14 -11903.601423  22352.395706   7766.395945     35.796167  3 10  1  86       
PG15  26072.875729   3909.203279  -4696.775337     33.716077  1  5  7  94       
PG16 -10398.160860 -11173.217672 -22029.307572   -506.266359  7  8  5  99       
PG17  -5229.463927  14283.625935  22208.704160    712.149231  5  7  6 101       
PG18   7739.733971 -16686.274034 -19103.793450   -239.057662  7  7  5  95       
PG19   5472.174408  15860.577424  20433.337233    308.256523  4  8  5 121       
PG20   7178.212739  16228.160771 -19786.901147    437.120763  5  8  6  92       
PG21 -18381.594874 -10818.533174  16902.119980    154.099577  2  6  7  95       
PG22  -8805.145894 -16210.313663  19616.344941    470.226144  6  6  5  27       
PG23  16667.521422 -20537.113967  -1236.042261     19.264103  4  8  5  78       
PG24  18077.875816   6270.535149  18231.532661   -164.818270  6  5  5  97       
PG25  19651.473836 -15415.189981   8317.619664    438.157560  4  6  2  87       
PG26   -969.937565 -20391.421550 -16927.207513    241.480407  8  9     81       
PG27 -18682.130747 -12885.054165 -14381.191387     51.356160  6  6  6 102       
PG28  -3800.590475 -24730.811509   8893.761696     70.150238  5  9  5  94       
PG29  22270.773084  -4402.580679 -13913.678533   -596.933983  5  7  6  85       
PG30  -2143.197063  22584.656229 -13484.414198   -520.655028  5  7  7 104       
PG31  -8876.079010 -24779.580372     55.017340   -214.735913  4  8  5  79       
PG32   1259.389107 -15306.499937  21853.351676   -460.413688  6  3  5  82       
*  2023  4 25  6 30  0.00000000
PG01 -16514.825749  -4916.149964  19988.020898    190.398997  5  5  6  99       
PG02   4430.363640 -18120.457848 -18539.817888   -602.669101  6  7  4 101       
PG03 -18946.492036   6923.710724  17086.706832   -320.795733  5  7  5  85       
PG04 -26153.485634    202.515347  -4949.239611     25.275194  9  5  4 109       
PG05  11978.624829   9419.786539 -21920.807801   -124.726216  8  8  6 117       
PG06   3792.101419  24296.097054   9969.925476    587.705071  5  7  6  82       
PG07 -11285.558757  11059.880851 -20829.084202    193.517949  5  7  4 110       
PG08 -24830.583791  -6784.955609  -7403.458836   -119.394457  4  6  3  94       
PG09 -20940.987779   8521.792005 -14043.564081   -172.775311  1  7  7  99       
PG10   9748.356554 -23263.057184   7976.906612    -34.279534  4  4  3  70       
PG11  12516.742295  23039.903767  -4350.838415   -174.158907  6 12  7 105       
PG12  18818.333940  -3247.774469  18140.995650   -368.138153  4  6  5  91       
PG13  19483.247282  13345.320847 -12531.316451    510.750942  6  8  6 103       
PG14 -12588.537979  22746.769652   5054.305001     35.807005  4  9  2 102       
PG15  25441.528279   4217.366232  -7365.922865     33.718962  2  4  7 106       
PG16  -8732.655820 -12957.508816 -21729.603087   -506.263911  8  8  5 102       
PG17  -7605.963283  13816.207696  21815.382214    712.150967  6  7  6 117       
PG18   8675.944717 -14628.035962 -20360.573464   -239.072409  7  7  4 100       
PG19   3099.310110  15362.634814  21259.207502    308.260764  5  8  5 114       
PG20   6056.007049  18118.858032 -18498.613213    437.118745  5  8  7 104       
PG21 -19077.961357 -12374.940074  14953.761969    154.099313  2  6  7  89       
PG22  -6617.840546 -15840.246979  20757.244735    470.232191  5  6  5  56       
PG23  16676.774814 -20154.082418  -4104.136860     19.266504  4  7  5  68       
PG24  18886.987143   8166.136256  16660.151881   -164.831051  6  5  6 101       
PG25  19191.150233 -14329.302575  10873.488742    438.160005  4  6     79       
PG26    228.272333 -21794.942507 -15059.955702    241.480143  8  9  1  95       
PG27 -16972.179455 -12818.450155 -16413.474363     51.348678  6  6  6 105       
PG28  -3105.946193 -23768.771299  11419.963960     70.155022  4  9  5 101       
PG29  23654.027351  -3956.045259 -11564.085080   -596.935116  5  8  6  88       
PG30  -3027.284884  21117.302168 -15544.571397   -520.653294  5  6  7 119       
PG31  -8520.496541 -24715.334012   2917.841068   -214.736865  4  8  4  78       
PG32   3699.838514 -15012.088145  21762.374260   -460.422491  6  3  5  79       
EOF
